[{"OBJECT_NAME":"CSTP 1.1 (STC 1.1)","OBJECT_ID":"2023-091AN","EPOCH":"2026-03-09T23:25:54.009120","MEAN_MOTION":15.18093425,"ECCENTRICITY":0.00112554,"INCLINATION":97.5238,"RA_OF_ASC_NODE":128.3525,"ARG_OF_PERICENTER":94.9808,"MEAN_ANOMALY":265.2711,"EPHEMERIS_TYPE":0,"CLASSIFICATION_TYPE":"U","NORAD_CAT_ID":57202,"ELEMENT_SET_NO":999,"REV_AT_EPOCH":14890,"BSTAR":0.00035864099,"MEAN_MOTION_DOT":7.256e-5,"MEAN_MOTION_DDOT":0},{"OBJECT_NAME":"CSC-2","OBJECT_ID":"2023-155F","EPOCH":"2026-03-09T18:52:09.760512","MEAN_MOTION":15.19850023,"ECCENTRICITY":0.00046278,"INCLINATION":97.5491,"RA_OF_ASC_NODE":145.3107,"ARG_OF_PERICENTER":207.4869,"MEAN_ANOMALY":152.6121,"EPHEMERIS_TYPE":0,"CLASSIFICATION_TYPE":"U","NORAD_CAT_ID":58021,"ELEMENT_SET_NO":999,"REV_AT_EPOCH":13307,"BSTAR":0.00057636631,"MEAN_MOTION_DOT":0.00012305,"MEAN_MOTION_DDOT":0}]
